GLOBALSTAR M035         
1 25851U 99037A   25338.16012484 -.00000013  00000+0  19206-2 0  9990
2 25851  51.9981  35.9067 0013452 255.3266 130.7539 11.04540342115043
GLOBALSTAR M032         
1 25852U 99037B   25337.95718336  .00000088  00000+0  49561-2 0  9994
2 25852  51.9930 209.8490 0013575  90.6601 269.5754 11.19074783153790
GLOBALSTAR M051         
1 25853U 99037C   25338.26670442 -.00000106  00000+0 -84537-3 0  9991
2 25853  51.9820 350.5944 0000265 148.7536 211.3290 11.42204976151828
GLOBALSTAR M030         
1 25854U 99037D   25337.77772914 -.00000063  00000+0  24629-3 0  9991
2 25854  51.9844 147.0939 0003243  14.3661 345.7247 11.55109777169644
GLOBALSTAR M048         
1 25872U 99041A   25338.15937410 -.00000065  00000+0  12547-3 0  9991
2 25872  51.9390 292.4596 0013308 116.5233 257.4455 11.33860508144260
GLOBALSTAR M026         
1 25873U 99041B   25337.66550572 -.00000011  00000+0  19565-2 0  9994
2 25873  51.9972 153.1808 0001947 152.2713 288.3204 11.06848326167255
GLOBALSTAR M043         
1 25874U 99041C   25337.98479934 -.00000080  00000+0 -36554-3 0  9997
2 25874  51.9427  47.2807 0013483 237.9223 294.5905 11.25696283141992
GLOBALSTAR M028         
1 25875U 99041D   25338.15128732 -.00000089  00000+0  73792-4 0  9999
2 25875  51.9642  46.2566 0063653  80.9831 279.8227 12.50591996211443
